{
  "norad_id": 58010,
  "name": "STARLINK-30520",
  "history": [
    {
      "epoch": "2026-03-28T16:06:07.218432Z",
      "apogee_km": 483.95239530039817,
      "perigee_km": 481.9983504965967,
      "latitude_deg": -3.1643734063856326e-05,
      "longitude_deg": -108.14893223390622,
      "height_km": 482.7626372306994,
      "semi_major_axis_km": 6861.112372898497,
      "eccentricity": 0.0001424,
      "inclination_deg": 43.0015,
      "raan_deg": 319.4692,
      "arg_perigee_deg": 269.3915,
      "mean_anomaly_deg": 90.6773,
      "mean_motion_rev_day": 15.27604621
    },
    {
      "epoch": "2026-03-28T23:56:53.763936Z",
      "apogee_km": 483.9860727244677,
      "perigee_km": 481.97302112959915,
      "latitude_deg": 3.25556823020608e-05,
      "longitude_deg": 131.9873619433398,
      "height_km": 482.7531522091234,
      "semi_major_axis_km": 6861.116546927034,
      "eccentricity": 0.0001467,
      "inclination_deg": 43.0017,
      "raan_deg": 317.6216,
      "arg_perigee_deg": 270.1899,
      "mean_anomaly_deg": 89.8785,
      "mean_motion_rev_day": 15.27603227
    },
    {
      "epoch": "2026-03-29T23:29:15.283104Z",
      "apogee_km": 484.00612262316645,
      "perigee_km": 482.1357573387277,
      "latitude_deg": 3.1963983529011365e-05,
      "longitude_deg": 132.39107346322209,
      "height_km": 482.7348743234576,
      "semi_major_axis_km": 6861.207939980946,
      "eccentricity": 0.0001363,
      "inclination_deg": 43.0007,
      "raan_deg": 312.0817,
      "arg_perigee_deg": 276.929,
      "mean_anomaly_deg": 83.1407,
      "mean_motion_rev_day": 15.27572705
    },
    {
      "epoch": "2026-03-29T23:29:15.283968Z",
      "apogee_km": 484.00584817484923,
      "perigee_km": 482.1360317870449,
      "latitude_deg": 2.884161378782325e-05,
      "longitude_deg": 132.39106652361858,
      "height_km": 482.7349074276592,
      "semi_major_axis_km": 6861.207939980946,
      "eccentricity": 0.00013626,
      "inclination_deg": 43.0007,
      "raan_deg": 312.0817,
      "arg_perigee_deg": 276.929,
      "mean_anomaly_deg": 83.1407,
      "mean_motion_rev_day": 15.27572705
    },
    {
      "epoch": "2026-03-30T21:27:26.637984Z",
      "apogee_km": 484.385444199409,
      "perigee_km": 481.77063514779,
      "latitude_deg": -1.7091204371882068e-05,
      "longitude_deg": 156.7701417120872,
      "height_km": 482.8223318982252,
      "semi_major_axis_km": 6861.2150396736,
      "eccentricity": 0.00019055,
      "inclination_deg": 42.9969,
      "raan_deg": 306.9104,
      "arg_perigee_deg": 271.4232,
      "mean_anomaly_deg": 88.6401,
      "mean_motion_rev_day": 15.27570334
    },
    {
      "epoch": "2026-03-31T20:59:47.769216Z",
      "apogee_km": 483.66620854313896,
      "perigee_km": 482.4270787770929,
      "latitude_deg": -3.912402021647119e-05,
      "longitude_deg": 157.17895205143677,
      "height_km": 482.87693744403344,
      "semi_major_axis_km": 6861.183643660115,
      "eccentricity": 9.03e-05,
      "inclination_deg": 43.0032,
      "raan_deg": 301.374,
      "arg_perigee_deg": 265.0305,
      "mean_anomaly_deg": 95.0443,
      "mean_motion_rev_day": 15.27580819
    },
    {
      "epoch": "2026-04-01T20:32:08.837376Z",
      "apogee_km": 484.1179367204131,
      "perigee_km": 481.9950834483934,
      "latitude_deg": 2.53792271407224e-05,
      "longitude_deg": 157.5835180663484,
      "height_km": 482.76675869366653,
      "semi_major_axis_km": 6861.193510084403,
      "eccentricity": 0.0001547,
      "inclination_deg": 42.9984,
      "raan_deg": 295.833,
      "arg_perigee_deg": 273.5866,
      "mean_anomaly_deg": 86.4809,
      "mean_motion_rev_day": 15.27577524
    },
    {
      "epoch": "2026-04-02T20:04:29.029440Z",
      "apogee_km": 483.6187346544757,
      "perigee_km": 482.3918251919804,
      "latitude_deg": 2.3173429424429213e-05,
      "longitude_deg": 157.99337286514893,
      "height_km": 482.9395606898821,
      "semi_major_axis_km": 6861.142279923228,
      "eccentricity": 8.941e-05,
      "inclination_deg": 43.0024,
      "raan_deg": 290.2937,
      "arg_perigee_deg": 255.094,
      "mean_anomaly_deg": 104.9813,
      "mean_motion_rev_day": 15.27594633
    },
    {
      "epoch": "2026-04-03T13:20:11.701536Z",
      "apogee_km": 483.9106723443847,
      "perigee_km": 482.10248656545446,
      "latitude_deg": 5.271817493997316e-05,
      "longitude_deg": -105.70461508383066,
      "height_km": 482.91341844263667,
      "semi_major_axis_km": 6861.143579454919,
      "eccentricity": 0.00013177,
      "inclination_deg": 43.0021,
      "raan_deg": 286.2324,
      "arg_perigee_deg": 261.7322,
      "mean_anomaly_deg": 98.3381,
      "mean_motion_rev_day": 15.27594199
    },
    {
      "epoch": "2026-04-04T20:43:20.876448Z",
      "apogee_km": 484.2067177675526,
      "perigee_km": 481.9109616395872,
      "latitude_deg": -2.6529063258960657e-05,
      "longitude_deg": 134.83249838615524,
      "height_km": 482.6921714941515,
      "semi_major_axis_km": 6861.19583970357,
      "eccentricity": 0.0001673,
      "inclination_deg": 43.0014,
      "raan_deg": 278.8468,
      "arg_perigee_deg": 277.1946,
      "mean_anomaly_deg": 82.8715,
      "mean_motion_rev_day": 15.27576746
    },
    {
      "epoch": "2026-04-05T12:24:54.895392Z",
      "apogee_km": 484.0646709650464,
      "perigee_km": 481.99836145470454,
      "latitude_deg": -1.911171805083847e-05,
      "longitude_deg": -104.89622005924642,
      "height_km": 482.58044438792905,
      "semi_major_axis_km": 6861.168516209876,
      "eccentricity": 0.00015058,
      "inclination_deg": 43.0014,
      "raan_deg": 275.1543,
      "arg_perigee_deg": 282.7503,
      "mean_anomaly_deg": 77.318,
      "mean_motion_rev_day": 15.27585871
    },
    {
      "epoch": "2026-04-05T18:41:32.395488Z",
      "apogee_km": 483.9950284601091,
      "perigee_km": 482.0349345620307,
      "latitude_deg": 4.161035215562943e-05,
      "longitude_deg": 159.21240317108501,
      "height_km": 482.622175292497,
      "semi_major_axis_km": 6861.15198151107,
      "eccentricity": 0.00014284,
      "inclination_deg": 43.0022,
      "raan_deg": 273.6769,
      "arg_perigee_deg": 279.9759,
      "mean_anomaly_deg": 80.0932,
      "mean_motion_rev_day": 15.27591393
    },
    {
      "epoch": "2026-04-07T11:29:37.733280Z",
      "apogee_km": 484.2065175734442,
      "perigee_km": 482.046317399082,
      "latitude_deg": 3.330505452274117e-05,
      "longitude_deg": -104.08750811788744,
      "height_km": 482.8381585642803,
      "semi_major_axis_km": 6861.263417486262,
      "eccentricity": 0.00015742,
      "inclination_deg": 43.0002,
      "raan_deg": 264.0749,
      "arg_perigee_deg": 273.4571,
      "mean_anomaly_deg": 86.6101,
      "mean_motion_rev_day": 15.27554178
    },
    {
      "epoch": "2026-04-08T11:01:58.343520Z",
      "apogee_km": 483.94483248032066,
      "perigee_km": 482.08093250324237,
      "latitude_deg": -1.8365370288127997e-06,
      "longitude_deg": -103.6774393194094,
      "height_km": 482.7573496522991,
      "semi_major_axis_km": 6861.149882491781,
      "eccentricity": 0.00013583,
      "inclination_deg": 42.9994,
      "raan_deg": 258.5376,
      "arg_perigee_deg": 271.9761,
      "mean_anomaly_deg": 88.0935,
      "mean_motion_rev_day": 15.27592094
    }
  ]
}